IHI-SAT                 
1 52147U 98067TJ  22107.29365858  .00031575  00000+0  51976-3 0  9998
2 52147  51.6402 277.9451 0003141  61.9057 298.2250 15.52049986  3809
KITSUNE                 
1 52148U 98067TK  22107.31341993  .00025538  00000+0  43438-3 0  9992
2 52148  51.6441 277.9408 0003142  49.2637  14.2105 15.51248845  3741
TK-2                    
1 52150U 22031A   22107.72239859  .00001193  00000+0  12766-3 0  9996
2 52150  97.7973 280.9104 0013380 193.5974 166.4885 14.90524632  2875
PUJIANG 2 (PJ-2)        
1 52151U 22031B   22107.38465383  .00000905  00000+0  97862-4 0  9993
2 52151  97.7845 280.5551 0012070 199.8287 160.2457 14.90686246  2829
CZ-6A R/B               
1 52152U 22031C   22107.49892665  .00001699  00000+0  14991-3 0  9995
2 52152  97.7851 280.8419 0026959 303.0348  56.8285 14.97517777  2852
2022-032A               
1 52153U 22032A   22107.41007503  .00001026  00000+0  11183-3 0  9992
2 52153  97.7950 157.3383 0011523 195.6690 164.4143 14.90104341  2724
2022-032C               
1 52155U 22032C   22107.45861686  .00001252  00000+0  12946-3 0  9997
2 52155  97.8015 157.4424 0015410 225.6518 134.3397 14.91816612  2738
2022-032D               
1 52156U 22032D   22107.32398501  .00002503  00000+0  25270-3 0  9999
2 52156  97.7879 157.2803 0015461 226.1622 133.8264 14.91883029  2725
2022-033A               
1 52157U 22033A   22107.47354787  .00001026  00000+0  16242-3 0  9993
2 52157  97.9480 190.5000 0012921 200.7016 159.3670 14.74287376  2344
GNOMES-3                
1 52158U 22033B   22107.46767086  .00001218  00000+0  18906-3 0  9995
2 52158  97.9489 190.5097 0012241 211.6625 148.3848 14.74840641  2347
2022-033C               
1 52159U 22033C   22107.46456067  .00000368  00000+0  62157-4 0  9993
2 52159  97.9777 190.5463 0007118 223.0474 137.0179 14.74978274  2347
ALFACRUX                
1 52160U 22033D   22107.45790174  .00008074  00000+0  37260-3 0  9992
2 52160  97.3895 189.9984 0009245 237.9878 122.0459 15.20450470  2406
ARCSAT-1                
1 52161U 22033E   22107.45767843  .00004411  00000+0  20536-3 0  9999
2 52161  97.3880 189.9939 0008969 233.5163 126.5247 15.20400494  2407
LYNK TOWER 1            
1 52162U 22033F   22107.45231906  .00003597  00000+0  16561-3 0  9993
2 52162  97.3872 189.9963 0009718 216.5108 143.5466 15.20907261  2405
ION SCV-005             
1 52163U 22033G   22107.51827124  .00004045  00000+0  18632-3 0  9994
2 52163  97.4058 190.0638 0010514 211.9563 148.1036 15.20815736  2415
SPACEBEE-136            
1 52164U 22033H   22107.18735152  .00012303  00000+0  55294-3 0  9998
2 52164  97.3825 189.7303 0009155 224.8685 135.1811 15.21241376  2363
HAWK-4B                 
1 52165U 22033J   22107.45159243  .00015006  00000+0  67355-3 0  9994
2 52165  97.3873 190.0019 0009777 225.6220 134.4216 15.21234582  2407
SPACEBEE-138            
1 52166U 22033K   22107.45084812  .00011846  00000+0  53297-3 0  9992
2 52166  97.3844 189.9920 0010783 215.3951 144.6570 15.21199154  2401
HAWK-4A                 
1 52167U 22033L   22107.45260415  .00002392  00000+0  11098-3 0  9997
2 52167  97.3861 189.9978 0009422 221.0427 139.0101 15.20973894  2402
NUSAT-23 (ANNIE MAUNDER)
1 52168U 22033M   22107.20097067  .00006486  00000+0  29754-3 0  9998
2 52168  97.3853 189.7418 0008764 225.2620 188.1874 15.20739149  2360
2022-033N               
1 52169U 22033N   22107.44813858  .00006169  00000+0  27801-3 0  9998
2 52169  97.3874 190.0075 0011530 220.8376 139.1996 15.21346001  2400
HAWK-4C                 
1 52170U 22033P   22107.44832365  .00002817  00000+0  12937-3 0  9994
2 52170  97.3881 190.0026 0011507 212.4022 147.6509 15.21165243  2406
NUSAT-25 (MARIA TELKES) 
1 52171U 22033Q   22107.19464981  .00006698  00000+0  30029-3 0  9995
2 52171  97.3871 189.7596 0011758 218.0675 202.0857 15.21485902  2361
NUSAT-27 (SALLY RIDE)   
1 52172U 22033R   22107.19343762  .00006779  00000+0  30297-3 0  9996
2 52172  97.3857 189.7545 0011653 212.9260 206.4358 15.21592402  2365
SHAKUNTALA              
1 52173U 22033S   22107.19101321  .00011300  00000+0  49840-3 0  9990
2 52173  97.3905 189.7733 0012793 216.5971 201.1200 15.21872756  2365
2022-033T               
1 52174U 22033T   22107.50773398  .00009238  00000+0  40654-3 0  9996
2 52174  97.3865 190.0742 0013162 208.5999 151.4517 15.22001080  2417
2022-033U               
1 52175U 22033U   22107.50743493  .00009072  00000+0  39887-3 0  9992
2 52175  97.3892 190.0839 0013483 210.8068 149.2378 15.22032079  2416
SPACEBEE-130            
1 52176U 22033V   22107.45217848  .00013225  00000+0  59668-3 0  9991
2 52176  97.3834 189.9863 0007397 215.3561 144.7185 15.21104221  2405
SPACEBEE-139            
1 52177U 22033W   22107.45297366  .00012820  00000+0  57988-3 0  9998
2 52177  97.3841 189.9896 0010224 220.8813 139.1656 15.21001508  2409
NUSAT-24 (KALPANA CHAW*)
1 52178U 22033X   22107.46550091  .00006502  00000+0  29804-3 0  9993
2 52178  97.3878 190.0110 0009324 227.9429 193.7476 15.20758947  2391
SPACEBEE-129            
1 52179U 22033Y   22107.45334963  .00010262  00000+0  46611-3 0  9994
2 52179  97.3835 189.9864 0008778 223.8941 136.1598 15.20928146  2402
SPACEBEE-134            
1 52180U 22033Z   22107.45270183  .00010389  00000+0  47070-3 0  9999
2 52180  97.3841 189.9888 0009035 223.4349 136.6175 15.21008168  2402
SPACEBEE-131            
1 52181U 22033AA  22107.45318186  .00011385  00000+0  51608-3 0  9995
2 52181  97.3837 189.9871 0008833 224.8716 135.1807 15.20969988  2409
SPACEBEE-128            
1 52182U 22033AB  22107.45334143  .00010351  00000+0  47001-3 0  9991
2 52182  97.3847 189.9898 0008831 223.2613 136.7930 15.20935421  2406
SPACEBEE-133            
1 52183U 22033AC  22107.45303480  .00011461  00000+0  51927-3 0  9997
2 52183  97.3837 189.9875 0008869 224.7095 135.3426 15.20986270  2393
2022-033AD              
1 52184U 22033AD  22107.45355863  .00005719  00000+0  26281-3 0  9994
2 52184  97.3872 189.9955 0009635 217.9301 142.1257 15.20724212  2404
SPACEBEE-132            
1 52185U 22033AE  22107.45230747  .00011439  00000+0  51718-3 0  9997
2 52185  97.3843 189.9908 0008356 237.1411 122.9021 15.21063618  2408
SPACEBEE-137            
1 52186U 22033AF  22107.51823062  .00011046  00000+0  49984-3 0  9999
2 52186  97.3842 190.0543 0009180 223.3818 136.6696 15.21036867  2417
SPACEBEE-135            
1 52187U 22033AG  22107.45228800  .00012035  00000+0  54388-3 0  9995
2 52187  97.3849 189.9915 0008629 219.6039 140.4567 15.21061508  2404
PLANTSAT                
1 52188U 22033AH  22107.44653256  .00008204  00000+0  36091-3 0  9996
2 52188  97.3874 190.0055 0005010 236.3540 123.7218 15.22113258  2403
KLEOS C                 
1 52189U 22033AJ  22107.18926404  .00009098  00000+0  41306-3 0  9993
2 52189  97.3807 189.7340 0010019 215.6835 144.3732 15.20968828  2368
KLEOS D                 
1 52190U 22033AK  22107.18925730  .00009380  00000+0  42575-3 0  9999
2 52190  97.3810 189.7346 0009974 215.6773 144.3797 15.20969561  2365
SUCHAI-3                
1 52191U 22033AL  22107.19134491  .00007321  00000+0  34117-3 0  9993
2 52191  97.3977 189.7373 0011279 197.6539 162.4306 15.20128649  2361
2022-034A               
1 52195U 22034A   22107.61905285  .00126622  00000+0  23536-2 0  9990
2 52195  53.0023 270.6888 0012791 344.8818  15.1805 15.47911617  2332
GLOBAL-18               
1 52196U 22034B   22107.63447839  .00018344  00000+0  39652-3 0  9997
2 52196  53.0045 270.7875 0008842 345.9464  14.1294 15.44544761  2335
GLOBAL-20               
1 52197U 22034C   22107.62921064  .00018900  00000+0  40063-3 0  9990
2 52197  53.0036 270.7504 0009928 334.8576  25.1945 15.45090891  2338
GAOFEN-3 03             
1 52200U 22035A   22107.28694885  .00000031  00000+0  21494-4 0  9990
2 52200  98.4163 116.0703 0005878 192.8760 167.2283 14.44810546  1480
CZ-4C R/B               
1 52201U 22035B   22107.58395164  .00000716  00000+0  11604-3 0  9993
2 52201  98.3983 116.7626 0112082  17.8381 342.6707 14.70553679  1550
COSMOS 2554             
1 52202U 22036A   22107.49484868  .00000083  00000+0  11423-3 0  9991
2 52202  67.1512 327.1512 0006958 266.7288  93.3035 13.96673338  1455
SL-4 R/B                
1 52203U 22036B   22107.56172785  .00125525  74570-5  64783-3 0  9997
2 52203  67.1391 323.0021 0446349  83.2350 281.9157 15.06791150  1518
AXIOM-1                 
1 52204U 22037A   22106.55318861  .00008765  00000+0  16083-3 0  9991
2 52204  51.6440 281.8481 0004839  30.4757  39.7178 15.50093537335629
CHINASAT 6D             
1 52255U 22038A   22106.17739715 -.00000347  00000+0  00000+0 0  9998
2 52255  28.4631  20.6165 7288754 179.6852 183.1434  2.28095705    28
CZ-3B R/B               
1 52256U 22038B   22106.98508792 -.00001057  12175-5  00000+0 0  9998
2 52256  28.4754  20.2913 7219492 179.3584 182.5406  2.38783343    41
DAQI 1                  
1 52257U 22039A   22107.38047936 -.00003911  00000+0 -78017-3 0  9990
2 52257  98.1324  49.2339 0002838 275.4913  83.9533 14.61491585   232
CZ-4C R/B               
1 52258U 22039B   22107.61898791 -.00002594  00000+0 -21356-3 0  9990
2 52258  98.1637  49.5772 0140205  56.4433 305.0107 14.90597890   276
